[Satellite]
VERSION=1.1
NAME=SUCHAI
NICKNAME=SUCHAI
TLE1=1 42788U 17036Z   20157.71461550  .00001273  00000-0  55732-4 0  9999
TLE2=2 42788  97.3027 212.5428 0013078  70.4998 289.7651 15.23743486164090
STATUS=0
